*******************************************************************************
JPL/HORIZONS              508 Princetonia (A903 HC)        2020-Jun-22 09:11:57
Rec #:     508 (+COV) Soln.date: 2020-May-20_01:06:55   # obs: 2645 (1908-2020)
 
IAU76/J2000 helio. ecliptic osc. elements (au, days, deg., period=Julian yrs):
 
  EPOCH=  2455191.5 ! 2009-Dec-26.00 (TDB)         Residual RMS= .24634
   EC= .01310719719034244  QR= 3.119654874218158   TP= 2455328.2442006608
   OM= 44.48187770269416   W=  181.7410285529116   IN= 13.36223770913514
   A= 3.161087876349471    MA= 336.0195053510101   ADIST= 3.202520878480785
   PER= 5.62035            N= .175367539           ANGMOM= .030581756
   DAN= 3.2025             DDN= 3.11967            L= 226.1758116
   B= -.402306             MOID= 2.11093998        TP= 2010-May-11.7442006608
 
Asteroid physical parameters (km, seconds, rotational period in hours):
   GM= n.a.                RAD= 58.6205            ROTPER= 52.8
   H= 8.4                  G= .150                 B-V= .732
                           ALBEDO= .065            STYP= C
 
ASTEROID comments: 
1: soln ref.= JPL#89, OCC=0
2: source=ORB
*******************************************************************************
 
 
*******************************************************************************
Ephemeris / WWW_USER Mon Jun 22 09:11:57 2020 Pasadena, USA      / Horizons
*******************************************************************************
Target body name: 508 Princetonia (A903 HC)       {source: JPL#89}
Center body name: Solar System Barycenter (0)     {source: DE431}
Center-site name: BODY CENTER
*******************************************************************************
Start time      : A.D. 1969-Jun-28 00:00:00.0000 TDB
Stop  time      : A.D. 2071-May-04 00:00:00.0000 TDB
Step-size       : 7200 minutes
*******************************************************************************
Center geodetic : 0.00000000,0.00000000,0.0000000 {E-lon(deg),Lat(deg),Alt(km)}
Center cylindric: 0.00000000,0.00000000,0.0000000 {E-lon(deg),Dxy(km),Dz(km)}
Center radii    : (undefined)                                                  
Small perturbers: Yes                             {source: SB431-N16}
Output units    : AU-D
Output type     : GEOMETRIC cartesian states
Output format   : 2 (position and velocity)
Reference frame : Ecliptic of J2000.0
*******************************************************************************
Initial IAU76/J2000 heliocentric ecliptic osculating elements (au, days, deg.):
  EPOCH=  2455191.5 ! 2009-Dec-26.00 (TDB)         Residual RMS= .24634        
   EC= .01310719719034244  QR= 3.119654874218158   TP= 2455328.2442006608      
   OM= 44.48187770269416   W=  181.7410285529116   IN= 13.36223770913514       
  Equivalent ICRF heliocentric equatorial cartesian coordinates (au, au/d):
   X=-2.880521080529727E+00  Y=-1.188990262140590E+00  Z=-2.098671560793467E-01
  VX= 3.485618339899388E-03 VY=-7.341882135294166E-03 VZ=-5.460941359057651E-03
Asteroid physical parameters (km, seconds, rotational period in hours):        
   GM= n.a.                RAD= 58.6205            ROTPER= 52.8                
   H= 8.4                  G= .150                 B-V= .732                   
                           ALBEDO= .065            STYP= C                     
*******************************************************************************
            JDTDB,            Calendar Date (TDB),        delta-T,                      X,                      Y,                      Z,                     VX,                     VY,                     VZ,
******************************************************************************************************************************************************************************************************************
$$SOE
2461400.500000000, A.D. 2026-Dec-26 00:00:00.0000,      69.183747, -2.751645909256415E+00, -1.544590361049853E+00,  1.902595445341943E-01,  4.586307190117779E-03, -8.254318863780870E-03, -2.156430686830938E-03,
2461405.500000000, A.D. 2026-Dec-31 00:00:00.0000,      69.183888, -2.728392234107950E+00, -1.585679394292059E+00,  1.794554764023698E-01,  4.714990536598133E-03, -8.180967219215959E-03, -2.165112600081741E-03,
2461410.500000000, A.D. 2027-Jan-05 00:00:00.0000,      69.184033, -2.704497753225622E+00, -1.626396774166602E+00,  1.686092602407892E-01,  4.842624288460821E-03, -8.105660145885383E-03, -2.173289492748913E-03,
2461415.500000000, A.D. 2027-Jan-10 00:00:00.0000,      69.184177, -2.679967792346135E+00, -1.666732763378736E+00,  1.577234271453003E-01,  4.969177373413289E-03, -8.028413665663621E-03, -2.180958987060653E-03,
2461420.500000000, A.D. 2027-Jan-15 00:00:00.0000,      69.184320, -2.654807832063585E+00, -1.706677705975038E+00,  1.468005198087969E-01,  5.094618922144695E-03, -7.949244292867872E-03, -2.188118822131669E-03,
2461425.500000000, A.D. 2027-Jan-20 00:00:00.0000,      69.184459, -2.629023506794319E+00, -1.746222029800415E+00,  1.358430919343919E-01,  5.218918276401766E-03, -7.868169032143523E-03, -2.194766854916815E-03,
2461430.500000000, A.D. 2027-Jan-25 00:00:00.0000,      69.184593, -2.602620603701615E+00, -1.785356248944105E+00,  1.248537076438771E-01,  5.342044996997169E-03, -7.785205376183267E-03, -2.200901061142562E-03,
2461435.500000000, A.D. 2027-Jan-30 00:00:00.0000,      69.184723, -2.575605061580467E+00, -1.824070966173725E+00,  1.138349408815836E-01,  5.463968871752306E-03, -7.700371303200471E-03, -2.206519536216978E-03,
2461440.500000000, A.D. 2027-Feb-04 00:00:00.0000,      69.184850, -2.547982969702688E+00, -1.862356875355929E+00,  1.027893748137412E-01,  5.584659923450315E-03, -7.613685274092451E-03, -2.211620496119197E-03,
2461445.500000000, A.D. 2027-Feb-09 00:00:00.0000,      69.184971, -2.519760566621963E+00, -1.900204763861930E+00,  9.171960122343346E-02,  5.704088417927587E-03, -7.525166229217652E-03, -2.216202278273348E-03,
2461450.500000000, A.D. 2027-Feb-14 00:00:00.0000,      69.185083, -2.490944238937836E+00, -1.937605514956078E+00,  8.062821990120946E-02,  5.822224872413624E-03, -7.434833584870049E-03, -2.220263342411851E-03,
2461455.500000000, A.D. 2027-Feb-19 00:00:00.0000,      69.185186, -2.461540520017515E+00, -1.974550110166468E+00,  6.951783803142009E-02,  5.939040064033578E-03, -7.342707229647372E-03, -2.223802271419444E-03,
2461460.500000000, A.D. 2027-Feb-24 00:00:00.0000,      69.185279, -2.431556088675102E+00, -2.011029631637337E+00,  5.839106957442741E-02,  6.054505038323526E-03, -7.248807520792864E-03, -2.226817772136566E-03,
2461465.500000000, A.D. 2027-Mar-01 00:00:00.0000,      69.185363, -2.400997767808223E+00, -2.047035264462955E+00,  4.725053464492689E-02,  6.168591117766233E-03, -7.153155280440952E-03, -2.229308676110641E-03,
2461470.500000000, A.D. 2027-Mar-06 00:00:00.0000,      69.185438, -2.369872522991806E+00, -2.082558299002464E+00,  3.609885888663408E-02,  6.281269910395550E-03, -7.055771791756929E-03, -2.231273940299497E-03,
2461475.500000000, A.D. 2027-Mar-11 00:00:00.0000,      69.185503, -2.338187461028747E+00, -2.117590133175271E+00,  2.493867284355822E-02,  6.392513318429610E-03, -6.956678795027705E-03, -2.232712647736482E-03,
2461480.500000000, A.D. 2027-Mar-16 00:00:00.0000,      69.185555, -2.305949828457504E+00, -2.152122274736869E+00,  1.377261132802138E-02,  6.502293546840727E-03, -6.855898483751993E-03, -2.233624008166441E-03,
2461485.500000000, A.D. 2027-Mar-21 00:00:00.0000,      69.185595, -2.273167010017219E+00, -2.186146343535154E+00,  2.603312785561498E-03,  6.610583111770438E-03, -6.753453500741255E-03, -2.234007358659703E-03,
2461490.500000000, A.D. 2027-Mar-26 00:00:00.0000,      69.185621, -2.239846527071277E+00, -2.219654073747201E+00, -8.566581343192234E-03,  6.717354848724596E-03, -6.649366934195555E-03, -2.233862164206205E-03,
2461495.500000000, A.D. 2027-Mar-31 00:00:00.0000,      69.185637, -2.205996035990503E+00, -2.252637316096210E+00, -1.973442726355690E-02,  6.822581920530855E-03, -6.543662313683721E-03, -2.233188018287713E-03,
2461500.500000000, A.D. 2027-Apr-05 00:00:00.0000,      69.185642, -2.171623326497086E+00, -2.285088040047955E+00, -3.089757947063222E-02,  6.926237825090556E-03, -6.436363605948842E-03, -2.231984643425261E-03,
2461505.500000000, A.D. 2027-Apr-10 00:00:00.0000,      69.185635, -2.136736319970162E+00, -2.316998335985700E+00, -4.205339139581257E-02,  7.028296402984515E-03, -6.327495210484580E-03, -2.230251891699903E-03,
2461510.500000000, A.D. 2027-Apr-15 00:00:00.0000,      69.185615, -2.101343067713593E+00, -2.348360417362356E+00, -5.319921605583204E-02,  7.128731844988778E-03, -6.217081954858745E-03, -2.227989745245779E-03,
2461515.500000000, A.D. 2027-Apr-20 00:00:00.0000,      69.185582, -2.065451749186320E+00, -2.379166622828644E+00, -6.433240670419967E-02,  7.227518699535308E-03, -6.105149089779985E-03, -2.225198316714159E-03,
2461520.500000000, A.D. 2027-Apr-25 00:00:00.0000,      69.185537, -2.029070670195511E+00, -2.409409418335914E+00, -7.545031748488133E-02,  7.324631880135593E-03, -5.991722283906478E-03, -2.221877849705249E-03,
2461525.500000000, A.D. 2027-Apr-30 00:00:00.0000,      69.185482, -1.992208261052660E+00, -2.439081399212356E+00, -8.655030408804448E-02,  7.420046672780992E-03, -5.876827618379302E-03, -2.218028719161546E-03,
2461530.500000000, A.D. 2027-May-05 00:00:00.0000,      69.185417, -1.954873074692660E+00, -2.468175292211091E+00, -9.762972440765734E-02,  7.513738743364313E-03, -5.760491581036246E-03, -2.213651431713856E-03,
2461535.500000000, A.D. 2027-May-10 00:00:00.0000,      69.185343, -1.917073784755521E+00, -2.496683957528469E+00, -1.086859392006839E-01,  7.605684145216958E-03, -5.642741060283982E-03, -2.208746625974470E-03,
